CCSDS_OEM_VERS = 1.0
CREATION_DATE  = 2017-05-11T11:06:47
ORIGINATOR     = GMAT USER

META_START
OBJECT_NAME          = MOPSSat_alt_35785_km_RAAN_0_141
OBJECT_ID            = SatId
CENTER_NAME          = Earth
REF_FRAME            = EME2000
TIME_SYSTEM          = UTC
START_TIME           = 2017-01-01T00:00:00.000
USEABLE_START_TIME   = 2017-01-01T00:00:00.000
USEABLE_STOP_TIME    = 2017-01-02T00:00:00.000
STOP_TIME            = 2017-01-02T00:00:00.000
INTERPOLATION        = Lagrange
INTERPOLATION_DEGREE = 7 
META_STOP


                                                                                   

2017-01-01T10:32:30.000  -5.751986392043170e+04   1.021547926407135e+04   3.576869081006512e+02  -5.873392398061662e-01  -1.960049566925951e+00  -6.837382869409978e-02
2017-01-01T10:32:40.000  -5.752573156356582e+04   1.019587774821944e+04   3.570031342487290e+02  -5.861893811063770e-01  -1.960253502395383e+00  -6.838093816602574e-02
2017-01-01T10:32:50.000  -5.753158770817250e+04   1.017627419525312e+04   3.563192893802054e+02  -5.850395437882834e-01  -1.960457021481572e+00  -6.838803311924502e-02
2017-01-01T10:33:00.000  -5.753743235446557e+04   1.015666860933571e+04   3.556353736402500e+02  -5.838897278161457e-01  -1.960660124290207e+00  -6.839511355745717e-02
2017-01-01T10:33:10.000  -5.754326550266505e+04   1.013706099460776e+04   3.549513871732369e+02  -5.827399331529118e-01  -1.960862810926979e+00  -6.840217948436191e-02
2017-01-01T10:33:20.000  -5.754908715301058e+04   1.011745135514020e+04   3.542673301211122e+02  -5.815901597574753e-01  -1.961065081498044e+00  -6.840923090367511e-02
2017-01-01T10:33:30.000  -5.755489730574098e+04   1.009783969500449e+04   3.535832026258408e+02  -5.804404075887901e-01  -1.961266936109316e+00  -6.841626781910404e-02
2017-01-01T10:33:40.000  -5.756069596109217e+04   1.007822601827979e+04   3.528990048296549e+02  -5.792906766062822e-01  -1.961468374866393e+00  -6.842329023434515e-02
2017-01-01T10:33:50.000  -5.756648311929066e+04   1.005861032907229e+04   3.522147368757300e+02  -5.781409667709971e-01  -1.961669397874331e+00  -6.843029815307594e-02
2017-01-01T10:34:00.000  -5.757225878054988e+04   1.003899263153107e+04   3.515303989087382e+02  -5.769912780465175e-01  -1.961870005237519e+00  -6.843729157895055e-02
2017-01-01T10:34:10.000  -5.757802294508668e+04   1.001937292979038e+04   3.508459910728331e+02  -5.758416103955821e-01  -1.962070197060251e+00  -6.844427051561985e-02
2017-01-01T10:34:20.000  -5.758377561304665e+04   9.999751228228297e+03   3.501615135206752e+02  -5.746919637952329e-01  -1.962269973444130e+00  -6.845123496664099e-02
2017-01-01T10:34:30.000  -5.758951678459495e+04   9.980127531153303e+03   3.494769664024956e+02  -5.735423382184605e-01  -1.962469334491230e+00  -6.845818493558732e-02
2017-01-01T10:34:40.000  -5.759524645988240e+04   9.960501842920828e+03   3.487923498701638e+02  -5.723927336410287e-01  -1.962668280302910e+00  -6.846512042600741e-02
2017-01-01T10:34:50.000  -5.760096463917741e+04   9.940874167481823e+03   3.481076640614393e+02  -5.712431500150325e-01  -1.962866810984400e+00  -6.847204144158471e-02
2017-01-01T10:35:00.000  -5.760667132273424e+04   9.921244508833022e+03   3.474229091156785e+02  -5.700935872952742e-01  -1.963064926640226e+00  -6.847894798597806e-02
2017-01-01T10:35:10.000  -5.761236651082313e+04   9.901612870914969e+03   3.467380851702779e+02  -5.689440454332865e-01  -1.963262627375254e+00  -6.848584006285829e-02
2017-01-01T10:35:20.000  -5.761805020365492e+04   9.881979257865989e+03   3.460531923695327e+02  -5.677945243922243e-01  -1.963459913292074e+00  -6.849271767581676e-02
2017-01-01T10:35:30.000  -5.762372240143737e+04   9.862343673833720e+03   3.453682308580629e+02  -5.666450241358074e-01  -1.963656784492959e+00  -6.849958082843376e-02
2017-01-01T10:35:40.000  -5.762938310437466e+04   9.842706122974985e+03   3.446832007808092e+02  -5.654955446283226e-01  -1.963853241079840e+00  -6.850642952427771e-02
2017-01-01T10:35:50.000  -5.763503231261435e+04   9.823066609644886e+03   3.439981022896288e+02  -5.643460858456731e-01  -1.964049283152478e+00  -6.851326376684130e-02
2017-01-01T10:36:00.000  -5.764067002631932e+04   9.803425138142251e+03   3.433129355344154e+02  -5.631966477604949e-01  -1.964244910810948e+00  -6.852008355962820e-02
2017-01-01T10:36:10.000  -5.764629624563926e+04   9.783781712809858e+03   3.426277006665954e+02  -5.620472303480202e-01  -1.964440124154655e+00  -6.852688890611881e-02
2017-01-01T10:36:20.000  -5.765191097083772e+04   9.764136337591173e+03   3.419423978236670e+02  -5.608978335601386e-01  -1.964634923286746e+00  -6.853367980992371e-02
2017-01-01T10:36:30.000  -5.765751420216485e+04   9.744489016473624e+03   3.412570271446600e+02  -5.597484573513373e-01  -1.964829308309690e+00  -6.854045627463000e-02
2017-01-01T10:36:40.000  -5.766310593988653e+04   9.724839753388407e+03   3.405715887666439e+02  -5.585991016728348e-01  -1.965023279326289e+00  -6.854721830383641e-02
2017-01-01T10:36:50.000  -5.766868618421028e+04   9.705188552464710e+03   3.398860828335942e+02  -5.574497664874702e-01  -1.965216836437105e+00  -6.855396590106348e-02
2017-01-01T10:37:00.000  -5.767425493534056e+04   9.685535417841049e+03   3.392005094898117e+02  -5.563004517586497e-01  -1.965409979742388e+00  -6.856069906982090e-02
2017-01-01T10:37:10.000  -5.767981219347831e+04   9.665880353665165e+03   3.385148688799190e+02  -5.551511574503458e-01  -1.965602709342049e+00  -6.856741781360656e-02
2017-01-01T10:37:20.000  -5.768535795876892e+04   9.646223364283283e+03   3.378291611554621e+02  -5.540018835381475e-01  -1.965795025333865e+00  -6.857412213584387e-02
2017-01-01T10:37:30.000  -5.769089223137281e+04   9.626564453985306e+03   3.371433864660223e+02  -5.528526299943769e-01  -1.965986927815923e+00  -6.858081203996705e-02
2017-01-01T10:37:40.000  -5.769641501143742e+04   9.606903627105143e+03   3.364575449627163e+02  -5.517033967939532e-01  -1.966178416885646e+00  -6.858748752938730e-02
2017-01-01T10:37:50.000  -5.770192629922193e+04   9.587240887577085e+03   3.357716367827202e+02  -5.505541838884579e-01  -1.966369492644124e+00  -6.859414860764339e-02
2017-01-01T10:38:00.000  -5.770742609497243e+04   9.567576239379430e+03   3.350856620647447e+02  -5.494049912320700e-01  -1.966560155191779e+00  -6.860079527825107e-02
2017-01-01T10:38:10.000  -5.771291439895036e+04   9.547909686434210e+03   3.343996209455383e+02  -5.482558187757017e-01  -1.966750404629358e+00  -6.860742754473717e-02
2017-01-01T10:38:20.000  -5.771839121135984e+04   9.528241232861650e+03   3.337135135687627e+02  -5.471066664818844e-01  -1.966940241055408e+00  -6.861404541055188e-02
2017-01-01T10:38:30.000  -5.772385653240211e+04   9.508570882791337e+03   3.330273400784060e+02  -5.459575343137171e-01  -1.967129664568161e+00  -6.862064887913454e-02
2017-01-01T10:38:40.000  -5.772931036227479e+04   9.488898640362115e+03   3.323411006187794e+02  -5.448084222348661e-01  -1.967318675265521e+00  -6.862723795391283e-02
2017-01-01T10:38:50.000  -5.773475270112111e+04   9.469224509911493e+03   3.316547953411238e+02  -5.436593302206134e-01  -1.967507273243291e+00  -6.863381263824131e-02
2017-01-01T10:39:00.000  -5.774018354909896e+04   9.449548495720628e+03   3.309684243947146e+02  -5.425102582429753e-01  -1.967695458597576e+00  -6.864037293548508e-02
2017-01-01T10:39:10.000  -5.774560290635296e+04   9.429870602116673e+03   3.302819879304312e+02  -5.413612062766766e-01  -1.967883231423811e+00  -6.864691884898565e-02
2017-01-01T10:39:20.000  -5.775101077313893e+04   9.410190833021286e+03   3.295954860850075e+02  -5.402121742727866e-01  -1.968070591821071e+00  -6.865345038221177e-02
2017-01-01T10:39:30.000  -5.775640714969901e+04   9.390509192403226e+03   3.289089189968214e+02  -5.390631621851502e-01  -1.968257539887748e+00  -6.865996753860806e-02
2017-01-01T10:39:40.000  -5.776179203629389e+04   9.370825684161589e+03   3.282222868018193e+02  -5.379141699635654e-01  -1.968444075722672e+00  -6.866647032163455e-02
2017-01-01T10:39:50.000  -5.776716543311577e+04   9.351140312439835e+03   3.275355896444727e+02  -5.367651975721304e-01  -1.968630199422084e+00  -6.867295873466094e-02
2017-01-01T10:40:00.000  -5.777252734036039e+04   9.331453081366675e+03   3.268488276687380e+02  -5.356162449741039e-01  -1.968815911082142e+00  -6.867943278105397e-02
2017-01-01T10:40:10.000  -5.777787775821095e+04   9.311763995113894e+03   3.261620010200742e+02  -5.344673121352832e-01  -1.969001210798356e+00  -6.868589246415800e-02
2017-01-01T10:40:20.000  -5.778321668684323e+04   9.292073057880751e+03   3.254751098448986e+02  -5.333183990230864e-01  -1.969186098665775e+00  -6.869233778730106e-02
2017-01-01T10:40:30.000  -5.778854412643019e+04   9.272380273874285e+03   3.247881542898997e+02  -5.321695056054067e-01  -1.969370574779139e+00  -6.869876875380057e-02
2017-01-01T10:40:40.000  -5.779386007714403e+04   9.252685647302194e+03   3.241011345017889e+02  -5.310206318502008e-01  -1.969554639232954e+00  -6.870518536696564e-02
2017-01-01T10:40:50.000  -5.779916453917556e+04   9.232989182302490e+03   3.234140506248465e+02  -5.298717777213778e-01  -1.969738292122161e+00  -6.871158763012067e-02
2017-01-01T10:41:00.000  -5.780445751272102e+04   9.213290882990372e+03   3.227269028025572e+02  -5.287229431815405e-01  -1.969921533541682e+00  -6.871797554658919e-02
2017-01-01T10:41:10.000  -5.780973899798228e+04   9.193590753458249e+03   3.220396911776101e+02  -5.275741281919838e-01  -1.970104363586423e+00  -6.872434911969444e-02
2017-01-01T10:41:20.000  -5.781500899517883e+04   9.173888797728709e+03   3.213524158902586e+02  -5.264253327099589e-01  -1.970286782351692e+00  -6.873070835277344e-02
2017-01-01T10:41:30.000  -5.782026750452941e+04   9.154185019824999e+03   3.206650770807797e+02  -5.252765566927787e-01  -1.970468789932562e+00  -6.873705324915504e-02
